STARLINK-31010          
1 58519U 23191M   26067.33336806 -.00005558  00000+0 -19262-3 0  9994
2 58519  42.9996 111.1992 0001070 282.2634  18.6268 15.27575293  5796
FLOCK 4G-21             
1 62651U 25009AU  26068.19487675  .00013648  00000+0  49619-3 0  9998
2 62651  97.4032 151.1274 0000465 329.5782  30.5431 15.28381075 63677
